{
  "type": "FeatureCollection",
  "features": [
    {
      "type": "Feature",
      "properties": {
        "norad_id": 34682,
        "name": "COSMOS 2251 DEB",
        "group": "cosmos-2251-debris",
        "lat": 22.30956550697618,
        "lon": -127.71574222011601,
        "alt_km": 685.4266203499528,
        "timestamp": "2025-12-25T07:41:10.118271+00:00",
        "meta_object_name": "COSMOS 2251 DEB",
        "meta_object_id": "1993-036YC",
        "meta_epoch": "2025-12-24T15:14:55.275072",
        "meta_mean_motion": 14.58972919,
        "meta_eccentricity": 0.00177035,
        "meta_inclination": 74.0393,
        "meta_ra_of_asc_node": 60.3321,
        "meta_arg_of_pericenter": 192.0267,
        "meta_mean_anomaly": 328.9286,
        "meta_ephemeris_type": 0,
        "meta_classification_type": "U",
        "meta_norad_cat_id": 34682,
        "meta_element_set_no": 999,
        "meta_rev_at_epoch": 88859,
        "meta_bstar": 0.00071253845,
        "meta_mean_motion_dot": 3.323e-05,
        "meta_mean_motion_ddot": 0,
        "tle_line1": "1 34682U 93036YC  25358.63536198  .00003323  00000+0  71254-3 0  9990",
        "tle_line2": "2 34682  74.0393  60.3321 0017703 192.0267 328.9286 14.58972919888592"
      },
      "geometry": {
        "type": "Point",
        "coordinates": [
          -127.71574222011601,
          22.30956550697618
        ]
      }
    },
    {
      "type": "Feature",
      "properties": {
        "norad_id": 34683,
        "name": "COSMOS 2251 DEB",
        "group": "cosmos-2251-debris",
        "lat": -23.142227626063537,
        "lon": -104.89257433986882,
        "alt_km": 671.9229029506887,
        "timestamp": "2025-12-25T07:41:10.118281+00:00",
        "meta_object_name": "COSMOS 2251 DEB",
        "meta_object_id": "1993-036YD",
        "meta_epoch": "2025-12-24T16:44:03.936192",
        "meta_mean_motion": 14.64633572,
        "meta_eccentricity": 0.00173569,
        "meta_inclination": 74.0289,
        "meta_ra_of_asc_node": 69.2741,
        "meta_arg_of_pericenter": 183.9932,
        "meta_mean_anomaly": 336.4823,
        "meta_ephemeris_type": 0,
        "meta_classification_type": "U",
        "meta_norad_cat_id": 34683,
        "meta_element_set_no": 999,
        "meta_rev_at_epoch": 88523,
        "meta_bstar": 0.0011998221,
        "meta_mean_motion_dot": 6.366e-05,
        "meta_mean_motion_ddot": 0,
        "tle_line1": "1 34683U 93036YD  25358.69726778  .00006366  00000+0  11998-2 0  9990",
        "tle_line2": "2 34683  74.0289  69.2741 0017356 183.9932 336.4823 14.64633572885238"
      },
      "geometry": {
        "type": "Point",
        "coordinates": [
          -104.89257433986882,
          -23.142227626063537
        ]
      }
    },
    {
      "type": "Feature",
      "properties": {
        "norad_id": 34685,
        "name": "COSMOS 2251 DEB",
        "group": "cosmos-2251-debris",
        "lat": 35.93197203747953,
        "lon": 136.84059814795734,
        "alt_km": 707.9033717233015,
        "timestamp": "2025-12-25T07:41:10.118291+00:00",
        "meta_object_name": "COSMOS 2251 DEB",
        "meta_object_id": "1993-036YF",
        "meta_epoch": "2025-12-24T02:40:25.828320",
        "meta_mean_motion": 14.57603922,
        "meta_eccentricity": 0.00142084,
        "meta_inclination": 74.0299,
        "meta_ra_of_asc_node": 127.1601,
        "meta_arg_of_pericenter": 232.1356,
        "meta_mean_anomaly": 304.844,
        "meta_ephemeris_type": 0,
        "meta_classification_type": "U",
        "meta_norad_cat_id": 34685,
        "meta_element_set_no": 999,
        "meta_rev_at_epoch": 88697,
        "meta_bstar": 0.0011246786,
        "meta_mean_motion_dot": 5.105e-05,
        "meta_mean_motion_ddot": 0,
        "tle_line1": "1 34685U 93036YF  25358.11141005  .00005105  00000+0  11247-2 0  9990",
        "tle_line2": "2 34685  74.0299 127.1601 0014208 232.1356 304.8440 14.57603922886974"
      },
      "geometry": {
        "type": "Point",
        "coordinates": [
          136.84059814795734,
          35.93197203747953
        ]
      }
    },
    {
      "type": "Feature",
      "properties": {
        "norad_id": 34689,
        "name": "COSMOS 2251 DEB",
        "group": "cosmos-2251-debris",
        "lat": 2.3605268657719316,
        "lon": -157.81414113417352,
        "alt_km": 890.8339579778358,
        "timestamp": "2025-12-25T07:41:10.118301+00:00",
        "meta_object_name": "COSMOS 2251 DEB",
        "meta_object_id": "1993-036YK",
        "meta_epoch": "2025-12-24T14:51:58.111776",
        "meta_mean_motion": 14.04584765,
        "meta_eccentricity": 0.02266729,
        "meta_inclination": 74.0907,
        "meta_ra_of_asc_node": 202.7308,
        "meta_arg_of_pericenter": 268.9545,
        "meta_mean_anomaly": 148.6343,
        "meta_ephemeris_type": 0,
        "meta_classification_type": "U",
        "meta_norad_cat_id": 34689,
        "meta_element_set_no": 999,
        "meta_rev_at_epoch": 84508,
        "meta_bstar": 0.0030686233,
        "meta_mean_motion_dot": 6.147e-05,
        "meta_mean_motion_ddot": 0,
        "tle_line1": "1 34689U 93036YK  25358.61942259  .00006147  00000+0  30686-2 0  9994",
        "tle_line2": "2 34689  74.0907 202.7308 0226672 268.9545 148.6343 14.04584765845083"
      },
      "geometry": {
        "type": "Point",
        "coordinates": [
          -157.81414113417352,
          2.3605268657719316
        ]
      }
    },
    {
      "type": "Feature",
      "properties": {
        "norad_id": 34721,
        "name": "COSMOS 2251 DEB",
        "group": "cosmos-2251-debris",
        "lat": 42.86315131810417,
        "lon": -40.05387716980695,
        "alt_km": 1056.462105698306,
        "timestamp": "2025-12-25T07:41:10.118311+00:00",
        "meta_object_name": "COSMOS 2251 DEB",
        "meta_object_id": "1993-036YP",
        "meta_epoch": "2025-12-23T08:06:44.057952",
        "meta_mean_motion": 13.96892285,
        "meta_eccentricity": 0.0222857,
        "meta_inclination": 73.9221,
        "meta_ra_of_asc_node": 307.8595,
        "meta_arg_of_pericenter": 244.8639,
        "meta_mean_anomaly": 275.037,
        "meta_ephemeris_type": 0,
        "meta_classification_type": "U",
        "meta_norad_cat_id": 34721,
        "meta_element_set_no": 999,
        "meta_rev_at_epoch": 85297,
        "meta_bstar": 0.0009996873,
        "meta_mean_motion_dot": 1.69e-05,
        "meta_mean_motion_ddot": 0,
        "tle_line1": "1 34721U 93036YP  25357.33800993  .00001690  00000+0  99969-3 0  9995",
        "tle_line2": "2 34721  73.9221 307.8595 0222857 244.8639 275.0370 13.96892285852970"
      },
      "geometry": {
        "type": "Point",
        "coordinates": [
          -40.05387716980695,
          42.86315131810417
        ]
      }
    },
    {
      "type": "Feature",
      "properties": {
        "norad_id": 34722,
        "name": "COSMOS 2251 DEB",
        "group": "cosmos-2251-debris",
        "lat": -49.43109241811703,
        "lon": 153.37944434672983,
        "alt_km": 739.1475109316843,
        "timestamp": "2025-12-25T07:41:10.118321+00:00",
        "meta_object_name": "COSMOS 2251 DEB",
        "meta_object_id": "1993-036YQ",
        "meta_epoch": "2025-12-24T14:08:50.254656",
        "meta_mean_motion": 14.11967666,
        "meta_eccentricity": 0.01664902,
        "meta_inclination": 73.8735,
        "meta_ra_of_asc_node": 314.9317,
        "meta_arg_of_pericenter": 238.4101,
        "meta_mean_anomaly": 240.7273,
        "meta_ephemeris_type": 0,
        "meta_classification_type": "U",
        "meta_norad_cat_id": 34722,
        "meta_element_set_no": 999,
        "meta_rev_at_epoch": 86412,
        "meta_bstar": 0.00063957341,
        "meta_mean_motion_dot": 1.307e-05,
        "meta_mean_motion_ddot": 0,
        "tle_line1": "1 34722U 93036YQ  25358.58947054  .00001307  00000+0  63957-3 0  9997",
        "tle_line2": "2 34722  73.8735 314.9317 0166490 238.4101 240.7273 14.11967666864129"
      },
      "geometry": {
        "type": "Point",
        "coordinates": [
          153.37944434672983,
          -49.43109241811703
        ]
      }
    },
    {
      "type": "Feature",
      "properties": {
        "norad_id": 34726,
        "name": "COSMOS 2251 DEB",
        "group": "cosmos-2251-debris",
        "lat": -66.25906808545376,
        "lon": -177.04467697940902,
        "alt_km": 725.1036928397689,
        "timestamp": "2025-12-25T07:41:10.118332+00:00",
        "meta_object_name": "COSMOS 2251 DEB",
        "meta_object_id": "1993-036YU",
        "meta_epoch": "2025-12-24T04:13:01.255872",
        "meta_mean_motion": 14.59524729,
        "meta_eccentricity": 0.00417122,
        "meta_inclination": 74.0282,
        "meta_ra_of_asc_node": 324.5074,
        "meta_arg_of_pericenter": 111.625,
        "meta_mean_anomaly": 248.9367,
        "meta_ephemeris_type": 0,
        "meta_classification_type": "U",
        "meta_norad_cat_id": 34726,
        "meta_element_set_no": 999,
        "meta_rev_at_epoch": 88669,
        "meta_bstar": 0.00041571183,
        "meta_mean_motion_dot": 1.969e-05,
        "meta_mean_motion_ddot": 0,
        "tle_line1": "1 34726U 93036YU  25358.17570898  .00001969  00000+0  41571-3 0  9996",
        "tle_line2": "2 34726  74.0282 324.5074 0041712 111.6250 248.9367 14.59524729886697"
      },
      "geometry": {
        "type": "Point",
        "coordinates": [
          -177.04467697940902,
          -66.25906808545376
        ]
      }
    }
  ]
}